{
  "norad_id": 47367,
  "name": "STARLINK-2082",
  "history": [
    {
      "epoch": "2026-03-28T22:00:01.999584",
      "apogee_km": 476.2537350532102,
      "perigee_km": 474.2536415147415,
      "latitude_deg": -47.61524362502125,
      "longitude_deg": 84.70222175982781,
      "semi_major_axis_km": 6853.390688283976,
      "eccentricity": 0.00014592,
      "inclination_deg": 53.1596,
      "raan_deg": 333.3605,
      "arg_perigee_deg": 73.6237,
      "mean_anomaly_deg": 209.8132,
      "mean_motion_rev_day": 15.30187066
    },
    {
      "epoch": "2026-03-29T00:00:01.999296",
      "apogee_km": 476.55991217196606,
      "perigee_km": 474.0460703831659,
      "latitude_deg": 11.773289959159342,
      "longitude_deg": 92.7022214399185,
      "semi_major_axis_km": 6853.439991277565,
      "eccentricity": 0.0001834,
      "inclination_deg": 53.1596,
      "raan_deg": 332.9738,
      "arg_perigee_deg": 75.4826,
      "mean_anomaly_deg": 307.2761,
      "mean_motion_rev_day": 15.30170554
    }
  ]
}